{
  "type": "FeatureCollection",
  "features": [
    {
      "type": "Feature",
      "properties": {
        "norad_id": 43647,
        "name": "BEIDOU-3 M16 (C35)",
        "group": "gnss",
        "lat": 53.857928361581,
        "lon": 46.52504815325169,
        "alt_km": 21517.109418117398,
        "timestamp": "2025-12-09T14:52:26.405413+00:00",
        "meta_object_name": "BEIDOU-3 M16 (C35)",
        "meta_object_id": "2018-078A",
        "meta_epoch": "2025-12-08T22:33:41.935680",
        "meta_mean_motion": 1.86232209,
        "meta_eccentricity": 0.0007116,
        "meta_inclination": 54.2656,
        "meta_ra_of_asc_node": 306.6541,
        "meta_arg_of_pericenter": 19.0293,
        "meta_mean_anomaly": 340.9862,
        "meta_ephemeris_type": 0,
        "meta_classification_type": "U",
        "meta_norad_cat_id": 43647,
        "meta_element_set_no": 999,
        "meta_rev_at_epoch": 4861,
        "meta_bstar": 0,
        "meta_mean_motion_dot": -7.5e-07,
        "meta_mean_motion_ddot": 0,
        "tle_line1": "1 43647U 18078A   25342.94006870 -.00000075  00000+0  00000+0 0  9999",
        "tle_line2": "2 43647  54.2656 306.6541 0007116  19.0293 340.9862  1.86232209 48612"
      },
      "geometry": {
        "type": "Point",
        "coordinates": [
          46.52504815325169,
          53.857928361581
        ]
      }
    },
    {
      "type": "Feature",
      "properties": {
        "norad_id": 43648,
        "name": "BEIDOU-3 M15 (C34)",
        "group": "gnss",
        "lat": 7.3473801207121126,
        "lon": -48.06439792611041,
        "alt_km": 21517.34819795912,
        "timestamp": "2025-12-09T14:52:26.405424+00:00",
        "meta_object_name": "BEIDOU-3 M15 (C34)",
        "meta_object_id": "2018-078B",
        "meta_epoch": "2025-12-09T01:39:46.574784",
        "meta_mean_motion": 1.86231876,
        "meta_eccentricity": 0.0003594,
        "meta_inclination": 54.2613,
        "meta_ra_of_asc_node": 306.6504,
        "meta_arg_of_pericenter": 17.607,
        "meta_mean_anomaly": 342.3947,
        "meta_ephemeris_type": 0,
        "meta_classification_type": "U",
        "meta_norad_cat_id": 43648,
        "meta_element_set_no": 999,
        "meta_rev_at_epoch": 4863,
        "meta_bstar": 0,
        "meta_mean_motion_dot": -7.5e-07,
        "meta_mean_motion_ddot": 0,
        "tle_line1": "1 43648U 18078B   25343.06928906 -.00000075  00000+0  00000+0 0  9997",
        "tle_line2": "2 43648  54.2613 306.6504 0003594  17.6070 342.3947  1.86231876 48639"
      },
      "geometry": {
        "type": "Point",
        "coordinates": [
          -48.06439792611041,
          7.3473801207121126
        ]
      }
    },
    {
      "type": "Feature",
      "properties": {
        "norad_id": 43683,
        "name": "BEIDOU-3 G1 (C59)",
        "group": "gnss",
        "lat": -0.9214969871160107,
        "lon": 81.78963408776089,
        "alt_km": 35785.463492392104,
        "timestamp": "2025-12-09T14:52:26.405436+00:00",
        "meta_object_name": "BEIDOU-3 G1 (C59)",
        "meta_object_id": "2018-085A",
        "meta_epoch": "2025-12-08T17:41:39.231168",
        "meta_mean_motion": 1.00272068,
        "meta_eccentricity": 0.0001779,
        "meta_inclination": 2.5974,
        "meta_ra_of_asc_node": 103.0581,
        "meta_arg_of_pericenter": 62.9114,
        "meta_mean_anomaly": 317.2543,
        "meta_ephemeris_type": 0,
        "meta_classification_type": "U",
        "meta_norad_cat_id": 43683,
        "meta_element_set_no": 999,
        "meta_rev_at_epoch": 2615,
        "meta_bstar": 0,
        "meta_mean_motion_dot": -2.75e-06,
        "meta_mean_motion_ddot": 0,
        "tle_line1": "1 43683U 18085A   25342.73725962 -.00000275  00000+0  00000+0 0  9996",
        "tle_line2": "2 43683   2.5974 103.0581 0001779  62.9114 317.2543  1.00272068 26153"
      },
      "geometry": {
        "type": "Point",
        "coordinates": [
          81.78963408776089,
          -0.9214969871160107
        ]
      }
    },
    {
      "type": "Feature",
      "properties": {
        "norad_id": 43687,
        "name": "COSMOS 2529 (757)",
        "group": "gnss",
        "lat": 13.217179155458153,
        "lon": -154.50528747367483,
        "alt_km": 19138.121354370003,
        "timestamp": "2025-12-09T14:52:26.405450+00:00",
        "meta_object_name": "COSMOS 2529 (757)",
        "meta_object_id": "2018-086A",
        "meta_epoch": "2025-12-09T03:09:05.996160",
        "meta_mean_motion": 2.13101852,
        "meta_eccentricity": 0.0007293,
        "meta_inclination": 64.2919,
        "meta_ra_of_asc_node": 199.0104,
        "meta_arg_of_pericenter": 254.2611,
        "meta_mean_anomaly": 105.7325,
        "meta_ephemeris_type": 0,
        "meta_classification_type": "U",
        "meta_norad_cat_id": 43687,
        "meta_element_set_no": 999,
        "meta_rev_at_epoch": 5523,
        "meta_bstar": 0,
        "meta_mean_motion_dot": 4.4e-07,
        "meta_mean_motion_ddot": 0,
        "tle_line1": "1 43687U 18086A   25343.13131940  .00000044  00000+0  00000+0 0  9996",
        "tle_line2": "2 43687  64.2919 199.0104 0007293 254.2611 105.7325  2.13101852 55238"
      },
      "geometry": {
        "type": "Point",
        "coordinates": [
          -154.50528747367483,
          13.217179155458153
        ]
      }
    },
    {
      "type": "Feature",
      "properties": {
        "norad_id": 43706,
        "name": "BEIDOU-3 M17 (C36)",
        "group": "gnss",
        "lat": -53.513809586192956,
        "lon": 86.42510288578885,
        "alt_km": 21521.520791618143,
        "timestamp": "2025-12-09T14:52:26.405461+00:00",
        "meta_object_name": "BEIDOU-3 M17 (C36)",
        "meta_object_id": "2018-093A",
        "meta_epoch": "2025-12-07T14:48:21.849120",
        "meta_mean_motion": 1.86228285,
        "meta_eccentricity": 0.0006281,
        "meta_inclination": 54.1726,
        "meta_ra_of_asc_node": 188.7957,
        "meta_arg_of_pericenter": 306.8876,
        "meta_mean_anomaly": 53.1241,
        "meta_ephemeris_type": 0,
        "meta_classification_type": "U",
        "meta_norad_cat_id": 43706,
        "meta_element_set_no": 999,
        "meta_rev_at_epoch": 4797,
        "meta_bstar": 0,
        "meta_mean_motion_dot": 5.7e-07,
        "meta_mean_motion_ddot": 0,
        "tle_line1": "1 43706U 18093A   25341.61691955  .00000057  00000+0  00000+0 0  9998",
        "tle_line2": "2 43706  54.1726 188.7957 0006281 306.8876  53.1241  1.86228285 47972"
      },
      "geometry": {
        "type": "Point",
        "coordinates": [
          86.42510288578885,
          -53.513809586192956
        ]
      }
    },
    {
      "type": "Feature",
      "properties": {
        "norad_id": 43707,
        "name": "BEIDOU-3 M18 (C37)",
        "group": "gnss",
        "lat": -3.5216851095209942,
        "lon": -173.8225689892115,
        "alt_km": 21511.48885535212,
        "timestamp": "2025-12-09T14:52:26.405472+00:00",
        "meta_object_name": "BEIDOU-3 M18 (C37)",
        "meta_object_id": "2018-093B",
        "meta_epoch": "2025-12-08T00:22:06.139776",
        "meta_mean_motion": 1.86226539,
        "meta_eccentricity": 0.00063651,
        "meta_inclination": 54.1733,
        "meta_ra_of_asc_node": 188.774,
        "meta_arg_of_pericenter": 352.0648,
        "meta_mean_anomaly": 7.9918,
        "meta_ephemeris_type": 0,
        "meta_classification_type": "U",
        "meta_norad_cat_id": 43707,
        "meta_element_set_no": 999,
        "meta_rev_at_epoch": 4797,
        "meta_bstar": 0,
        "meta_mean_motion_dot": 5.3e-07,
        "meta_mean_motion_ddot": 0,
        "tle_line1": "1 43707U 18093B   25342.01534884  .00000053  00000+0  00000+0 0  9997",
        "tle_line2": "2 43707  54.1733 188.7740 0006365 352.0648   7.9918  1.86226539 47972"
      },
      "geometry": {
        "type": "Point",
        "coordinates": [
          -173.8225689892115,
          -3.5216851095209942
        ]
      }
    },
    {
      "type": "Feature",
      "properties": {
        "norad_id": 43873,
        "name": "GPS BIII-1  (PRN 04)",
        "group": "gnss",
        "lat": 39.541417050146684,
        "lon": 134.11745309072228,
        "alt_km": 20258.446660784088,
        "timestamp": "2025-12-09T14:52:26.405487+00:00",
        "meta_object_name": "GPS BIII-1  (PRN 04)",
        "meta_object_id": "2018-109A",
        "meta_epoch": "2025-12-08T13:41:32.071776",
        "meta_mean_motion": 2.00553358,
        "meta_eccentricity": 0.003721,
        "meta_inclination": 55.5654,
        "meta_ra_of_asc_node": 99.7112,
        "meta_arg_of_pericenter": 194.8122,
        "meta_mean_anomaly": 178.3596,
        "meta_ephemeris_type": 0,
        "meta_classification_type": "U",
        "meta_norad_cat_id": 43873,
        "meta_element_set_no": 999,
        "meta_rev_at_epoch": 5125,
        "meta_bstar": 0,
        "meta_mean_motion_dot": 6e-08,
        "meta_mean_motion_ddot": 0,
        "tle_line1": "1 43873U 18109A   25342.57051009  .00000006  00000+0  00000+0 0  9991",
        "tle_line2": "2 43873  55.5654  99.7112 0037210 194.8122 178.3596  2.00553358 51259"
      },
      "geometry": {
        "type": "Point",
        "coordinates": [
          134.11745309072228,
          39.541417050146684
        ]
      }
    }
  ]
}